[{"OBJECT_NAME":"STARLINK-5960","OBJECT_ID":"2023-083AW","EPOCH":"2026-03-09T22:00:01.999584","MEAN_MOTION":15.06681708,"ECCENTRICITY":0.00012025,"INCLINATION":43.0005,"RA_OF_ASC_NODE":67.3488,"ARG_OF_PERICENTER":306.9912,"MEAN_ANOMALY":164.9708,"EPHEMERIS_TYPE":0,"CLASSIFICATION_TYPE":"U","NORAD_CAT_ID":56920,"ELEMENT_SET_NO":999,"REV_AT_EPOCH":577,"BSTAR":0.0042766737,"MEAN_MOTION_DOT":0.00064947,"MEAN_MOTION_DDOT":0},{"OBJECT_NAME":"OBJECT B","OBJECT_ID":"2025-013B","EPOCH":"2026-03-09T22:32:54.215232","MEAN_MOTION":15.10568465,"ECCENTRICITY":0.00132175,"INCLINATION":97.6475,"RA_OF_ASC_NODE":238.3035,"ARG_OF_PERICENTER":355.2799,"MEAN_ANOMALY":4.8303,"EPHEMERIS_TYPE":0,"CLASSIFICATION_TYPE":"U","NORAD_CAT_ID":62730,"ELEMENT_SET_NO":999,"REV_AT_EPOCH":6234,"BSTAR":0.00034549224,"MEAN_MOTION_DOT":5.648e-5,"MEAN_MOTION_DDOT":0}]
